[{"OBJECT_NAME":"SL-12 R/B(2)","OBJECT_ID":"1982-044F","EPOCH":"2026-04-05T05:52:25.237920","MEAN_MOTION":1.00264096,"ECCENTRICITY":0.0014342,"INCLINATION":8.3533,"RA_OF_ASC_NODE":297.2576,"ARG_OF_PERICENTER":197.8091,"MEAN_ANOMALY":140.5292,"EPHEMERIS_TYPE":0,"CLASSIFICATION_TYPE":"U","NORAD_CAT_ID":14114,"ELEMENT_SET_NO":999,"REV_AT_EPOCH":4660,"BSTAR":0,"MEAN_MOTION_DOT":-6.4e-7,"MEAN_MOTION_DDOT":0},{"OBJECT_NAME":"PALAPA B1","OBJECT_ID":"1983-059C","EPOCH":"2026-04-04T19:45:53.556192","MEAN_MOTION":1.00171021,"ECCENTRICITY":0.00023013,"INCLINATION":11.6807,"RA_OF_ASC_NODE":329.9913,"ARG_OF_PERICENTER":68.6356,"MEAN_ANOMALY":119.1546,"EPHEMERIS_TYPE":0,"CLASSIFICATION_TYPE":"U","NORAD_CAT_ID":14134,"ELEMENT_SET_NO":999,"REV_AT_EPOCH":12005,"BSTAR":0,"MEAN_MOTION_DOT":1.19e-6,"MEAN_MOTION_DDOT":0},{"OBJECT_NAME":"GALAXY 1 (G-1)","OBJECT_ID":"1983-065A","EPOCH":"2026-04-05T12:31:11.273664","MEAN_MOTION":1.00133776,"ECCENTRICITY":0.0003302,"INCLINATION":13.6523,"RA_OF_ASC_NODE":342.2094,"ARG_OF_PERICENTER":321.7148,"MEAN_ANOMALY":30.7518,"EPHEMERIS_TYPE":0,"CLASSIFICATION_TYPE":"U","NORAD_CAT_ID":14158,"ELEMENT_SET_NO":999,"REV_AT_EPOCH":4589,"BSTAR":0,"MEAN_MOTION_DOT":-2.99e-6,"MEAN_MOTION_DDOT":0},{"OBJECT_NAME":"SL-12 R/B(2)","OBJECT_ID":"1981-102F","EPOCH":"2026-04-04T19:17:52.521504","MEAN_MOTION":1.00239133,"ECCENTRICITY":0.00082366,"INCLINATION":6.7789,"RA_OF_ASC_NODE":295.015,"ARG_OF_PERICENTER":228.3927,"MEAN_ANOMALY":131.3283,"EPHEMERIS_TYPE":0,"CLASSIFICATION_TYPE":"U","NORAD_CAT_ID":14195,"ELEMENT_SET_NO":999,"REV_AT_EPOCH":12226,"BSTAR":0,"MEAN_MOTION_DOT":-2.2e-7,"MEAN_MOTION_DDOT":0},{"OBJECT_NAME":"INSAT-1B","OBJECT_ID":"1983-089B","EPOCH":"2026-04-05T13:30:44.591904","MEAN_MOTION":1.00168985,"ECCENTRICITY":0.00086249,"INCLINATION":11.2665,"RA_OF_ASC_NODE":327.5019,"ARG_OF_PERICENTER":255.0668,"MEAN_ANOMALY":264.046,"EPHEMERIS_TYPE":0,"CLASSIFICATION_TYPE":"U","NORAD_CAT_ID":14318,"ELEMENT_SET_NO":999,"REV_AT_EPOCH":12448,"BSTAR":0,"MEAN_MOTION_DOT":-2.25e-6,"MEAN_MOTION_DDOT":0},{"OBJECT_NAME":"GALAXY 2 (G-2)","OBJECT_ID":"1983-098A","EPOCH":"2026-04-05T09:03:38.689632","MEAN_MOTION":1.00181172,"ECCENTRICITY":0.00038068,"INCLINATION":13.6642,"RA_OF_ASC_NODE":342.5259,"ARG_OF_PERICENTER":75.2585,"MEAN_ANOMALY":118.2378,"EPHEMERIS_TYPE":0,"CLASSIFICATION_TYPE":"U","NORAD_CAT_ID":14365,"ELEMENT_SET_NO":999,"REV_AT_EPOCH":13150,"BSTAR":0,"MEAN_MOTION_DOT":1.06e-6,"MEAN_MOTION_DDOT":0},{"OBJECT_NAME":"EKRAN 11","OBJECT_ID":"1983-100A","EPOCH":"2026-04-05T00:53:22.592256","MEAN_MOTION":1.00302408,"ECCENTRICITY":0.00036506,"INCLINATION":7.9253,"RA_OF_ASC_NODE":305.0362,"ARG_OF_PERICENTER":355.9414,"MEAN_ANOMALY":3.8928,"EPHEMERIS_TYPE":0,"CLASSIFICATION_TYPE":"U","NORAD_CAT_ID":14377,"ELEMENT_SET_NO":999,"REV_AT_EPOCH":4664,"BSTAR":0,"MEAN_MOTION_DOT":-3.08e-6,"MEAN_MOTION_DDOT":0},{"OBJECT_NAME":"INTELSAT 507","OBJECT_ID":"1983-105A","EPOCH":"2026-04-05T08:05:38.720544","MEAN_MOTION":0.99698498,"ECCENTRICITY":0.00040429,"INCLINATION":12.0575,"RA_OF_ASC_NODE":331.6294,"ARG_OF_PERICENTER":66.1024,"MEAN_ANOMALY":110.5406,"EPHEMERIS_TYPE":0,"CLASSIFICATION_TYPE":"U","NORAD_CAT_ID":14421,"ELEMENT_SET_NO":999,"REV_AT_EPOCH":13650,"BSTAR":0,"MEAN_MOTION_DOT":1.8e-7,"MEAN_MOTION_DDOT":0},{"OBJECT_NAME":"RADUGA 14","OBJECT_ID":"1984-016A","EPOCH":"2026-04-05T14:04:28.913664","MEAN_MOTION":1.00299064,"ECCENTRICITY":0.00011043,"INCLINATION":8.7112,"RA_OF_ASC_NODE":311.2834,"ARG_OF_PERICENTER":127.1415,"MEAN_ANOMALY":40.4862,"EPHEMERIS_TYPE":0,"CLASSIFICATION_TYPE":"U","NORAD_CAT_ID":14725,"ELEMENT_SET_NO":999,"REV_AT_EPOCH":11737,"BSTAR":0,"MEAN_MOTION_DOT":-9.6e-7,"MEAN_MOTION_DDOT":0},{"OBJECT_NAME":"COSMOS 1540","OBJECT_ID":"1984-022A","EPOCH":"2026-04-05T13:20:03.752736","MEAN_MOTION":1.00284118,"ECCENTRICITY":0.00072921,"INCLINATION":9.473,"RA_OF_ASC_NODE":305.101,"ARG_OF_PERICENTER":300.7484,"MEAN_ANOMALY":221.2121,"EPHEMERIS_TYPE":0,"CLASSIFICATION_TYPE":"U","NORAD_CAT_ID":14783,"ELEMENT_SET_NO":999,"REV_AT_EPOCH":12029,"BSTAR":0,"MEAN_MOTION_DOT":-8.6e-7,"MEAN_MOTION_DDOT":0},{"OBJECT_NAME":"COSMOS 1546","OBJECT_ID":"1984-031A","EPOCH":"2026-04-05T02:01:51.747744","MEAN_MOTION":1.00257433,"ECCENTRICITY":0.00250872,"INCLINATION":8.8179,"RA_OF_ASC_NODE":311.9345,"ARG_OF_PERICENTER":14.4666,"MEAN_ANOMALY":332.1972,"EPHEMERIS_TYPE":0,"CLASSIFICATION_TYPE":"U","NORAD_CAT_ID":14867,"ELEMENT_SET_NO":999,"REV_AT_EPOCH":4663,"BSTAR":0,"MEAN_MOTION_DOT":-9.7e-7,"MEAN_MOTION_DDOT":0},{"OBJECT_NAME":"STTW-T2","OBJECT_ID":"1984-035A","EPOCH":"2026-04-05T11:40:15.764448","MEAN_MOTION":1.00254938,"ECCENTRICITY":0.00057671,"INCLINATION":9.5812,"RA_OF_ASC_NODE":318.364,"ARG_OF_PERICENTER":192.5544,"MEAN_ANOMALY":351.7392,"EPHEMERIS_TYPE":0,"CLASSIFICATION_TYPE":"U","NORAD_CAT_ID":14899,"ELEMENT_SET_NO":999,"REV_AT_EPOCH":4664,"BSTAR":0,"MEAN_MOTION_DOT":-3.34e-6,"MEAN_MOTION_DDOT":0},{"OBJECT_NAME":"GORIZONT 9","OBJECT_ID":"1984-041A","EPOCH":"2026-04-05T14:57:11.469888","MEAN_MOTION":1.00311474,"ECCENTRICITY":0.00054496,"INCLINATION":8.8858,"RA_OF_ASC_NODE":312.8052,"ARG_OF_PERICENTER":295.8987,"MEAN_ANOMALY":257.9067,"EPHEMERIS_TYPE":0,"CLASSIFICATION_TYPE":"U","NORAD_CAT_ID":14940,"ELEMENT_SET_NO":999,"REV_AT_EPOCH":12121,"BSTAR":0,"MEAN_MOTION_DOT":-2.36e-6,"MEAN_MOTION_DDOT":0},{"OBJECT_NAME":"ZHONGXING-5","OBJECT_ID":"1984-049A","EPOCH":"2026-04-05T05:27:27.887904","MEAN_MOTION":0.99980287,"ECCENTRICITY":0.0008781,"INCLINATION":14.3817,"RA_OF_ASC_NODE":348.8689,"ARG_OF_PERICENTER":248.6001,"MEAN_ANOMALY":305.4997,"EPHEMERIS_TYPE":0,"CLASSIFICATION_TYPE":"U","NORAD_CAT_ID":14985,"ELEMENT_SET_NO":999,"REV_AT_EPOCH":13057,"BSTAR":0,"MEAN_MOTION_DOT":-1.49e-6,"MEAN_MOTION_DDOT":0},{"OBJECT_NAME":"RADUGA 15","OBJECT_ID":"1984-063A","EPOCH":"2026-04-05T13:33:01.292256","MEAN_MOTION":1.00173024,"ECCENTRICITY":0.00017269,"INCLINATION":8.8705,"RA_OF_ASC_NODE":312.2687,"ARG_OF_PERICENTER":243.7739,"MEAN_ANOMALY":294.5449,"EPHEMERIS_TYPE":0,"CLASSIFICATION_TYPE":"U","NORAD_CAT_ID":15057,"ELEMENT_SET_NO":999,"REV_AT_EPOCH":14037,"BSTAR":0,"MEAN_MOTION_DOT":-2.5e-6,"MEAN_MOTION_DDOT":0},{"OBJECT_NAME":"GORIZONT 10","OBJECT_ID":"1984-078A","EPOCH":"2026-04-05T12:08:39.242400","MEAN_MOTION":1.0020872,"ECCENTRICITY":0.00035996,"INCLINATION":9.0223,"RA_OF_ASC_NODE":313.8502,"ARG_OF_PERICENTER":344.0885,"MEAN_ANOMALY":284.3318,"EPHEMERIS_TYPE":0,"CLASSIFICATION_TYPE":"U","NORAD_CAT_ID":15144,"ELEMENT_SET_NO":999,"REV_AT_EPOCH":15384,"BSTAR":0,"MEAN_MOTION_DOT":1.17e-6,"MEAN_MOTION_DDOT":0},{"OBJECT_NAME":"HIMAWARI-3 (GMS-3)","OBJECT_ID":"1984-080A","EPOCH":"2026-04-04T22:54:06.170112","MEAN_MOTION":0.99838754,"ECCENTRICITY":0.00047844,"INCLINATION":10.7383,"RA_OF_ASC_NODE":324.1382,"ARG_OF_PERICENTER":124.7703,"MEAN_ANOMALY":55.5149,"EPHEMERIS_TYPE":0,"CLASSIFICATION_TYPE":"U","NORAD_CAT_ID":15152,"ELEMENT_SET_NO":999,"REV_AT_EPOCH":15191,"BSTAR":0,"MEAN_MOTION_DOT":-2.78e-6,"MEAN_MOTION_DDOT":0},{"OBJECT_NAME":"SL-12 R/B(2)","OBJECT_ID":"1984-078F","EPOCH":"2026-04-05T13:40:18.992064","MEAN_MOTION":1.00336478,"ECCENTRICITY":0.00207407,"INCLINATION":9.1063,"RA_OF_ASC_NODE":314.2148,"ARG_OF_PERICENTER":212.4593,"MEAN_ANOMALY":334.3482,"EPHEMERIS_TYPE":0,"CLASSIFICATION_TYPE":"U","NORAD_CAT_ID":15181,"ELEMENT_SET_NO":999,"REV_AT_EPOCH":12228,"BSTAR":0,"MEAN_MOTION_DOT":-3.37e-6,"MEAN_MOTION_DDOT":0},{"OBJECT_NAME":"TELSTAR 302","OBJECT_ID":"1984-093D","EPOCH":"2026-04-05T13:46:58.232640","MEAN_MOTION":0.99777777,"ECCENTRICITY":7.658e-5,"INCLINATION":14.1714,"RA_OF_ASC_NODE":345.9042,"ARG_OF_PERICENTER":171.8127,"MEAN_ANOMALY":352.0403,"EPHEMERIS_TYPE":0,"CLASSIFICATION_TYPE":"U","NORAD_CAT_ID":15237,"ELEMENT_SET_NO":999,"REV_AT_EPOCH":4571,"BSTAR":0,"MEAN_MOTION_DOT":-2.92e-6,"MEAN_MOTION_DDOT":0},{"OBJECT_NAME":"GALAXY 3 (G-3)","OBJECT_ID":"1984-101A","EPOCH":"2026-04-05T10:57:51.782976","MEAN_MOTION":0.99848564,"ECCENTRICITY":0.00069017,"INCLINATION":14.1396,"RA_OF_ASC_NODE":345.6477,"ARG_OF_PERICENTER":25.667,"MEAN_ANOMALY":142.8297,"EPHEMERIS_TYPE":0,"CLASSIFICATION_TYPE":"U","NORAD_CAT_ID":15308,"ELEMENT_SET_NO":999,"REV_AT_EPOCH":4575,"BSTAR":0,"MEAN_MOTION_DOT":-2.46e-6,"MEAN_MOTION_DDOT":0},{"OBJECT_NAME":"ZHONGXING-5R","OBJECT_ID":"1984-114A","EPOCH":"2026-04-05T00:40:25.972032","MEAN_MOTION":0.99765147,"ECCENTRICITY":0.00094376,"INCLINATION":14.6796,"RA_OF_ASC_NODE":352.5776,"ARG_OF_PERICENTER":76.174,"MEAN_ANOMALY":115.7999,"EPHEMERIS_TYPE":0,"CLASSIFICATION_TYPE":"U","NORAD_CAT_ID":15385,"ELEMENT_SET_NO":999,"REV_AT_EPOCH":12624,"BSTAR":0,"MEAN_MOTION_DOT":-2.32e-6,"MEAN_MOTION_DDOT":0},{"OBJECT_NAME":"GORIZONT 11","OBJECT_ID":"1985-007A","EPOCH":"2026-04-04T22:56:58.394688","MEAN_MOTION":1.00248785,"ECCENTRICITY":0.00029184,"INCLINATION":9.2906,"RA_OF_ASC_NODE":316.0145,"ARG_OF_PERICENTER":293.6812,"MEAN_ANOMALY":265.8131,"EPHEMERIS_TYPE":0,"CLASSIFICATION_TYPE":"U","NORAD_CAT_ID":15484,"ELEMENT_SET_NO":999,"REV_AT_EPOCH":15189,"BSTAR":0,"MEAN_MOTION_DOT":-1.89e-6,"MEAN_MOTION_DDOT":0},{"OBJECT_NAME":"ARABSAT-1A","OBJECT_ID":"1985-015A","EPOCH":"2026-04-05T13:35:21.859872","MEAN_MOTION":1.00158197,"ECCENTRICITY":0.00288651,"INCLINATION":11.9263,"RA_OF_ASC_NODE":331.7469,"ARG_OF_PERICENTER":239.3013,"MEAN_ANOMALY":283.9628,"EPHEMERIS_TYPE":0,"CLASSIFICATION_TYPE":"U","NORAD_CAT_ID":15560,"ELEMENT_SET_NO":999,"REV_AT_EPOCH":12528,"BSTAR":0,"MEAN_MOTION_DOT":-2.79e-6,"MEAN_MOTION_DDOT":0},{"OBJECT_NAME":"COSMOS 1629","OBJECT_ID":"1985-016A","EPOCH":"2026-04-05T09:24:38.642688","MEAN_MOTION":1.0028296,"ECCENTRICITY":0.00061477,"INCLINATION":9.2617,"RA_OF_ASC_NODE":314.9698,"ARG_OF_PERICENTER":270.1334,"MEAN_ANOMALY":294.0199,"EPHEMERIS_TYPE":0,"CLASSIFICATION_TYPE":"U","NORAD_CAT_ID":15574,"ELEMENT_SET_NO":999,"REV_AT_EPOCH":14972,"BSTAR":0,"MEAN_MOTION_DOT":6.1e-7,"MEAN_MOTION_DDOT":0}]
